"MEAN_MOTION","ECCENTRICITY","INCLINATION","RA_OF_ASC_NODE","ARG_OF_PERICENTER","MEAN_ANOMALY","SEMIMAJOR_AXIS","PERIOD","APOAPSIS","PERIAPSIS","OBJECT_TYPE","RCS_SIZE","COUNTRY_CODE","LAUNCH_DATE"
14.36594192,0.0232107,98.9626,238.1268,72.6203,290.0221,7147.91,100.237,935.683,603.867,"DEBRIS","SMALL","PRC",1999
15.29539343,0.0008793,97.2717,4.8507,194.7663,165.3322,6855.325,94.146,483.218,471.162,"PAYLOAD","SMALL","US",2016
14.19790071,0.004106,98.8704,31.9634,286.7901,85.726,7204.2,101.423,855.645,796.484,"DEBRIS","SMALL","PRC",1999
14.07211044,0.0090504,99.2394,299.8337,240.1323,119.0828,7247.068,102.33,934.522,803.344,"DEBRIS","SMALL","US",1978
13.69830611,0.0241998,98.3463,344.8535,149.8516,211.6818,7378.316,105.122,1178.735,821.627,"DEBRIS","SMALL","PRC",1999
14.74056178,0.0081609,71.2879,214.4549,65.0614,108.5253,7026.286,97.69,705.492,590.81,"DEBRIS","SMALL","CIS",1992
14.13902187,0.0165009,74.037,213.1345,288.0454,134.3421,7224.186,101.846,965.257,726.846,"DEBRIS","SMALL","CIS",1993
14.99742534,0.0007195,36.9681,13.6423,169.0795,191.012,6945.828,96.016,572.691,562.696,"TBA","SMALL","TBD",2019
14.26663589,0.0038842,98.7163,325.9186,146.9021,213.4601,7181.042,100.935,830.799,775.014,"DEBRIS","SMALL","US",1995
14.12032005,0.0056641,98.6942,264.2502,151.9901,208.4339,7230.564,101.981,893.383,811.474,"DEBRIS","SMALL","US",1995
14.37281233,0.0098437,98.9199,156.76,345.2994,14.5333,7145.632,100.189,837.837,697.158,"DEBRIS","SMALL","PRC",1999
13.93033164,0.0017876,99.1243,22.5009,286.8882,73.0318,7296.158,103.372,931.065,904.98,"DEBRIS","SMALL","US",2000
13.94928961,0.0150258,98.4453,228.4244,229.0332,256.7215,7289.545,103.231,1020.942,801.879,"DEBRIS","SMALL","PRC",1999
13.98486584,0.0199002,98.062,49.7396,42.5329,131.6972,7277.178,102.968,1043.86,754.225,"DEBRIS","SMALL","PRC",1999
14.11277555,0.0074407,99.1943,298.3821,103.1726,257.776,7233.14,102.035,908.825,801.186,"DEBRIS","SMALL","PRC",1999
14.64519983,0.0018993,98.3088,42.3986,155.0838,205.1285,7056.754,98.326,692.022,665.216,"DEBRIS","SMALL","FR",1998
15.42858969,0.0020741,86.4383,317.5414,145.5303,214.7303,6815.813,93.333,451.815,423.542,"DEBRIS","SMALL","US",1997
14.43665921,0.0078828,98.6852,294.7102,251.0391,108.2243,7124.549,99.746,802.575,690.253,"DEBRIS","SMALL","PRC",1999
14.05435913,0.0168618,98.7678,318.6822,115.818,6.4633,7253.169,102.459,997.336,752.733,"DEBRIS","SMALL","PRC",1999
14.27255826,0.0066537,98.968,87.3718,24.4804,335.951,7179.055,100.893,848.687,753.153,"DEBRIS","SMALL","US",2000
14.19452857,0.0019076,98.7623,314.4935,190.8982,169.1783,7205.341,101.448,840.951,813.461,"DEBRIS","SMALL","US",1995
12.99691308,0.0030124,90.2721,324.4661,35.4541,324.8575,7641.437,110.796,1286.321,1240.283,"DEBRIS","SMALL","US",1965
14.13806631,0.0035528,98.9373,343.9603,55.3241,0.2412,7224.512,101.853,872.044,820.709,"DEBRIS","SMALL","PRC",1999
13.40916901,0.0447197,73.9645,264.3622,177.417,359.0946,7484.003,107.389,1440.55,771.185,"DEBRIS","SMALL","CIS",1993
13.86073779,0.0326817,98.4539,178.5082,102.9931,260.7928,7320.56,103.891,1181.673,703.176,"DEBRIS","SMALL","PRC",1999
14.19835196,0.007496,98.9989,46.8574,15.515,344.8299,7204.047,101.42,879.914,771.911,"DEBRIS","SMALL","PRC",1999
14.31449353,0.0164468,99.1869,157.2814,20.4231,340.3426,7165.027,100.597,904.734,669.051,"DEBRIS","SMALL","US",2000
14.3214226,0.0115115,86.4428,57.0634,95.6258,265.8077,7162.716,100.549,867.035,702.127,"DEBRIS","SMALL","US",1997
15.13847324,0.0021101,97.6052,268.306,200.8035,159.2339,6902.617,95.122,539.047,509.917,"PAYLOAD","SMALL","GER",2019
14.51656785,0.0021641,86.3439,276.9039,256.2383,103.6413,7098.379,99.197,735.606,704.883,"DEBRIS","SMALL","US",1997
15.19766055,0.0036655,60.694,122.9764,39.6051,62.4884,6884.684,94.751,531.785,481.313,"PAYLOAD","SMALL","US",2021
14.17534567,0.0022585,98.8353,21.5694,332.4297,27.5678,7211.84,101.585,849.993,817.417,"DEBRIS","SMALL","US",2000
13.79437497,0.0207629,99.0646,67.3805,118.3135,243.9135,7344.02,104.39,1118.368,813.401,"DEBRIS","SMALL","CIS",1998
14.83416402,0.0004541,97.9028,353.123,347.4501,12.6599,6996.698,97.073,621.74,615.386,"DEBRIS","SMALL","CIS",1994
14.01925692,0.0076594,99.1769,341.5431,109.9591,307.8763,7265.271,102.716,942.784,831.489,"DEBRIS","SMALL","PRC",1999
15.02227535,0.0011778,97.7014,240.3124,55.4209,304.8149,6938.166,95.858,568.203,551.859,"PAYLOAD","SMALL","GER",2020
14.58173303,0.0007725,74.0001,304.0481,247.0888,179.5311,7077.215,98.754,704.548,693.613,"DEBRIS","SMALL","CIS",1993
14.07169948,0.0230016,100.5456,295.3113,86.0344,276.7078,7247.209,102.333,1035.772,702.377,"DEBRIS","SMALL","PRC",2013
14.30142913,0.005064,98.7349,17.6004,197.0559,286.1862,7169.39,100.689,827.561,754.949,"DEBRIS","SMALL","PRC",1999
14.83418321,0.0003124,97.8967,347.5663,31.3493,328.7906,6996.692,97.073,620.743,616.371,"DEBRIS","SMALL","CIS",1994
13.7201855,0.0189852,99.6642,338.2039,166.6696,193.9567,7370.47,104.955,1132.265,852.405,"DEBRIS","SMALL","PRC",1999
13.22688945,0.0136739,99.7157,182.9813,163.509,320.3791,7552.604,108.869,1277.742,1071.195,"DEBRIS","SMALL","US",1975
13.99514091,0.0109498,70.8945,260.5967,225.248,311.0035,7273.615,102.893,975.125,815.836,"DEBRIS","SMALL","CIS",1992
14.52243305,0.0016111,74.0326,41.271,107.2187,315.5844,7096.468,99.157,729.766,706.9,"DEBRIS","SMALL","CIS",1993
14.10147997,0.0012405,98.8512,336.5901,91.3277,268.9315,7237.002,102.117,867.845,849.89,"DEBRIS","SMALL","PRC",1999
14.45454542,0.0044025,74.042,18.8735,163.6215,196.6378,7118.67,99.623,771.875,709.195,"DEBRIS","SMALL","CIS",1993
14.44307092,0.0037486,74.0125,87.5131,199.9794,223.6475,7122.44,99.702,771.004,717.606,"DEBRIS","SMALL","CIS",1993
14.05713052,0.0013511,82.5423,234.6324,180.2929,179.8238,7252.216,102.439,883.879,864.282,"DEBRIS","SMALL","CIS",1982
15.06016694,0.016274,101.7199,285.9125,46.9253,314.545,6926.524,95.616,661.111,435.666,"PAYLOAD","SMALL","US",2011
14.33493258,0.0024137,65.0083,287.7254,269.9116,89.9203,7158.215,100.454,797.358,762.802,"DEBRIS","SMALL","CIS",1987
14.20494843,0.0025515,81.2126,264.7407,129.0343,231.311,7201.817,101.373,842.057,805.306,"DEBRIS","SMALL","CIS",2013
13.7567742,0.0244738,98.8299,45.7311,65.1451,357.2353,7357.395,104.676,1159.324,799.197,"DEBRIS","SMALL","PRC",2008
13.08576615,0.0051901,82.5387,258.3042,124.8609,235.7404,7606.807,110.043,1268.152,1189.192,"DEBRIS","SMALL","CIS",1991
13.95650684,0.0092601,98.9033,326.1388,120.1835,240.854,7287.032,103.178,976.376,841.419,"DEBRIS","SMALL","US",2000
14.42320562,0.0017481,74.0477,76.3961,215.742,206.8758,7128.979,99.839,763.306,738.381,"DEBRIS","SMALL","CIS",1993
14.40399753,0.0113076,98.9862,146.7884,329.9024,29.5696,7135.315,99.972,837.863,676.497,"DEBRIS","SMALL","PRC",1999
13.68691511,0.0199052,82.7493,75.0631,316.486,221.3683,7382.409,105.21,1151.223,857.326,"DEBRIS","SMALL","CIS",1981
14.12402852,0.0015844,98.8146,16.6348,356.2391,3.8659,7229.298,101.954,862.617,839.709,"DEBRIS","SMALL","US",2000
14.42702876,0.0126861,99.0399,274.3618,238.1431,120.7359,7127.719,99.813,840.007,659.161,"DEBRIS","SMALL","PRC",1999
14.34649423,0.0245574,98.4075,340.8399,340.3844,18.8018,7154.369,100.373,951.926,600.541,"DEBRIS","SMALL","PRC",1999
14.32695589,0.0010625,98.5394,253.6099,159.0885,201.0736,7160.872,100.51,790.345,775.128,"PAYLOAD","SMALL","JPN",2002
13.83044127,0.0050653,82.9404,43.5095,189.8545,231.9469,7331.246,104.118,990.246,915.976,"DEBRIS","SMALL","CIS",1981
15.22333665,0.0009835,97.4357,7.2156,301.7072,58.3204,6876.941,94.592,505.569,492.042,"PAYLOAD","SMALL","US",2019
14.29277761,0.0148263,98.6202,272.4452,309.87,100.7246,7172.283,100.75,900.486,687.81,"DEBRIS","SMALL","PRC",2009
13.59948933,0.0048557,99.7712,208.1187,25.2221,95.5619,7414.015,105.886,1071.88,999.879,"DEBRIS","SMALL","US",1975
13.92695688,0.0014133,82.5185,193.1633,3.4914,7.9038,7297.336,103.397,929.515,908.888,"DEBRIS","SMALL","CIS",1988
14.49519407,0.0008791,86.3801,311.7387,203.8967,156.183,7105.356,99.343,733.467,720.974,"DEBRIS","SMALL","US",1997
14.15128561,0.0220497,99.2101,199.7142,39.4997,322.2016,7220.012,101.758,1001.076,682.678,"DEBRIS","SMALL","PRC",1999
14.06961546,0.0067727,99.0984,269.096,257.1729,115.5543,7247.925,102.348,918.878,820.702,"DEBRIS","SMALL","PRC",1999
13.60773408,0.0416534,98.2064,173.1888,98.2992,73.1289,7411.02,105.822,1341.579,724.19,"DEBRIS","SMALL","PRC",1999
15.31165708,0.0005595,97.309,11.2483,350.849,9.2649,6850.47,94.046,476.168,468.502,"PAYLOAD","SMALL","US",2017
14.08955147,0.0049555,98.8685,274.4203,152.8802,207.4972,7241.086,102.203,898.835,827.068,"DEBRIS","SMALL","US",1995
14.83639302,0.0008478,97.9028,352.5562,193.7101,166.3883,6995.997,97.059,623.793,611.931,"DEBRIS","SMALL","CIS",1994
14.80155977,0.0183442,98.7771,75.496,3.2335,7.7986,7006.969,97.287,757.371,500.297,"DEBRIS","SMALL","PRC",1999
6.51848021,0.4511509,28.4842,230.9459,146.5659,252.5158,12105.171,220.91,11188.295,265.777,"DEBRIS","SMALL","US",1999
14.98268308,0.0008631,97.6692,327.1119,30.9172,329.2557,6950.384,96.111,578.248,566.25,"DEBRIS","SMALL","PRC",2004
14.10841881,0.0154012,98.4254,341.0407,305.5602,53.1294,7234.629,102.067,967.916,745.072,"DEBRIS","SMALL","PRC",1999
15.15255849,0.0022733,97.5935,269.2373,189.0988,170.9835,6898.339,95.033,535.886,504.522,"PAYLOAD","SMALL","US",2019
13.32070452,0.0079515,82.5664,242.4924,302.9579,56.3924,7517.101,108.102,1198.738,1079.194,"DEBRIS","SMALL","CIS",1991
14.74481274,0.0091908,74.0493,58.2981,157.7178,215.8248,7024.935,97.661,711.365,582.236,"DEBRIS","SMALL","CIS",1993
14.17963836,0.0078493,98.6862,349.8175,58.0727,67.4549,7210.384,101.554,888.846,775.653,"DEBRIS","SMALL","PRC",1999
14.35443397,0.0185235,98.2592,326.5075,109.6198,252.5085,7151.73,100.317,906.07,641.12,"DEBRIS","SMALL","PRC",1999
14.28577846,0.0029834,98.6986,334.3893,180.7337,179.3805,7174.625,100.8,817.895,775.086,"DEBRIS","SMALL","US",1995
12.95934962,0.0021828,90.2775,329.2999,287.443,72.4303,7656.196,111.117,1294.773,1261.349,"DEBRIS","SMALL","US",1965
